[{"OBJECT_NAME":"CUBESAT XI-IV (CO-57)","OBJECT_ID":"2003-031J","EPOCH":"2026-03-09T22:11:01.387104","MEAN_MOTION":14.23561441,"ECCENTRICITY":0.00104004,"INCLINATION":98.681,"RA_OF_ASC_NODE":78.5124,"ARG_OF_PERICENTER":128.1826,"MEAN_ANOMALY":232.0291,"EPHEMERIS_TYPE":0,"CLASSIFICATION_TYPE":"U","NORAD_CAT_ID":27848,"ELEMENT_SET_NO":999,"REV_AT_EPOCH":17725,"BSTAR":0.00017577502,"MEAN_MOTION_DOT":3.57e-6,"MEAN_MOTION_DDOT":0},{"OBJECT_NAME":"OPS 1127 (DMSP 4B F3)","OBJECT_ID":"1969-062A","EPOCH":"2026-03-09T14:27:15.703776","MEAN_MOTION":14.29487981,"ECCENTRICITY":0.0043772,"INCLINATION":98.4375,"RA_OF_ASC_NODE":287.166,"ARG_OF_PERICENTER":186.8931,"MEAN_ANOMALY":173.1655,"EPHEMERIS_TYPE":0,"CLASSIFICATION_TYPE":"U","NORAD_CAT_ID":4047,"ELEMENT_SET_NO":999,"REV_AT_EPOCH":94710,"BSTAR":7.0766e-5,"MEAN_MOTION_DOT":1.4e-6,"MEAN_MOTION_DDOT":0}]
